ONEWEB-0427             
1 50499U 21132AG  26191.34330645  .00000048  00000+0  88927-4 0  9992
2 50499  87.9191 330.8303 0001865  91.2447 268.8898 13.18686428224667
ONEWEB-0429             
1 50500U 21132AH  26191.32980566  .00000064  00000+0  13027-3 0  9992
2 50500  87.9183 330.8556 0001849 101.0882 259.0458 13.18687162224633
ONEWEB-0430             
1 50501U 21132AJ  26191.31800438  .00000039  00000+0  67318-4 0  9996
2 50501  87.9182 330.8566 0001978 103.8739 256.2613 13.18688391224679
ONEWEB-0432             
1 50502U 21132AK  26190.39049751  .00000042  00000+0  74702-4 0  9996
2 50502  87.9190 331.0270 0002310 100.0785 260.0608 13.18686360224508
ONEWEB-0440             
1 50503U 21132AL  26191.33824001  .00000101  00000+0  22293-3 0  9994
2 50503  87.9192 330.8503 0001601 104.7714 255.3596 13.18686915224624
ONEWEB-0450             
1 50504U 21132AM  26190.64874852 -.00000016  00000+0 -72286-4 0  9992
2 50504  87.9180 330.9902 0001909 103.2252 256.9093 13.18686595224564
ONEWEB-0410             
1 51622U 22012A   26191.45374344  .00000060  00000+0  12074-3 0  9998
2 51622  87.9150   1.2302 0002046  52.5028 307.6289 13.17649809216765
ONEWEB-0411             
1 51623U 22012B   26191.98960760  .00000200  00000+0  53629-3 0  9997
2 51623  87.8829  31.5245 0002226  97.6043 262.5338 13.10377902212403
ONEWEB-0415             
1 51624U 22012C   26191.98620434  .00000040  00000+0  78378-4 0  9990
2 51624  87.8822  31.5234 0002140  88.0693 272.0679 13.10378407212400
ONEWEB-0416             
1 51625U 22012D   26191.99809829  .00000526  00000+0  14696-2 0  9999
2 51625  87.8815  31.5373 0002186  85.9363 274.2014 13.10376562212448
ONEWEB-0422             
1 51626U 22012E   26191.46386564  .00000045  00000+0  82731-4 0  9991
2 51626  87.9147   1.2289 0001721 112.3828 247.7486 13.17650675216879
ONEWEB-0423             
1 51627U 22012F   26191.45711512  .00000025  00000+0  29984-4 0  9995
2 51627  87.9138   1.2344 0001794  88.6666 271.4671 13.17647832216766
ONEWEB-0425             
1 51628U 22012G   26192.00828719  .00000711  00000+0  20007-2 0  9993
2 51628  87.8816  31.5199 0001879  73.6659 286.4675 13.10374100212442
ONEWEB-0428             
1 51629U 22012H   26191.98790463  .00000092  00000+0  22610-3 0  9999
2 51629  87.8816  31.5300 0001753  84.3458 275.7870 13.10378257212405
ONEWEB-0431             
1 51630U 22012J   26191.95719199 -.00000371  00000+0 -11001-2 0  9998
2 51630  87.8815  31.5297 0002276  98.5047 261.6339 13.10369916212454
ONEWEB-0434             
1 51631U 22012K   26191.01916842  .00000711  00000+0  20019-2 0  9995
2 51631  87.8818  31.7428 0001718  65.8938 294.2369 13.10370704212319
