{"fetched_at":"2026-07-11T09:23:57.375Z","source":"https://celestrak.org/NORAD/elements/gp.php?GROUP=oneweb&FORMAT=JSON","constellation":"oneweb","records":[{"OBJECT_NAME":"ONEWEB-0427","OBJECT_ID":"2021-132AG","EPOCH":"2026-07-10T08:14:21.677280","CLASSIFICATION_TYPE":"U","MEAN_MOTION":13.18686428,"ECCENTRICITY":0.00018654,"INCLINATION":87.9191,"RA_OF_ASC_NODE":330.8303,"ARG_OF_PERICENTER":91.2447,"MEAN_ANOMALY":268.8898,"EPHEMERIS_TYPE":0,"NORAD_CAT_ID":50499,"ELEMENT_SET_NO":999,"REV_AT_EPOCH":22466,"BSTAR":0.000088927018,"MEAN_MOTION_DOT":4.8e-7,"MEAN_MOTION_DDOT":0},{"OBJECT_NAME":"ONEWEB-0429","OBJECT_ID":"2021-132AH","EPOCH":"2026-07-10T07:54:55.209024","CLASSIFICATION_TYPE":"U","MEAN_MOTION":13.18687162,"ECCENTRICITY":0.00018493,"INCLINATION":87.9183,"RA_OF_ASC_NODE":330.8556,"ARG_OF_PERICENTER":101.0882,"MEAN_ANOMALY":259.0458,"EPHEMERIS_TYPE":0,"NORAD_CAT_ID":50500,"ELEMENT_SET_NO":999,"REV_AT_EPOCH":22463,"BSTAR":0.00013027094,"MEAN_MOTION_DOT":6.4e-7,"MEAN_MOTION_DDOT":0},{"OBJECT_NAME":"ONEWEB-0430","OBJECT_ID":"2021-132AJ","EPOCH":"2026-07-10T07:37:55.578432","CLASSIFICATION_TYPE":"U","MEAN_MOTION":13.18688391,"ECCENTRICITY":0.0001978,"INCLINATION":87.9182,"RA_OF_ASC_NODE":330.8566,"ARG_OF_PERICENTER":103.8739,"MEAN_ANOMALY":256.2613,"EPHEMERIS_TYPE":0,"NORAD_CAT_ID":50501,"ELEMENT_SET_NO":999,"REV_AT_EPOCH":22467,"BSTAR":0.000067318212,"MEAN_MOTION_DOT":3.9e-7,"MEAN_MOTION_DDOT":0},{"OBJECT_NAME":"ONEWEB-0432","OBJECT_ID":"2021-132AK","EPOCH":"2026-07-09T09:22:18.984864","CLASSIFICATION_TYPE":"U","MEAN_MOTION":13.1868636,"ECCENTRICITY":0.000231,"INCLINATION":87.919,"RA_OF_ASC_NODE":331.027,"ARG_OF_PERICENTER":100.0785,"MEAN_ANOMALY":260.0608,"EPHEMERIS_TYPE":0,"NORAD_CAT_ID":50502,"ELEMENT_SET_NO":999,"REV_AT_EPOCH":22450,"BSTAR":0.000074701502,"MEAN_MOTION_DOT":4.2e-7,"MEAN_MOTION_DDOT":0},{"OBJECT_NAME":"ONEWEB-0440","OBJECT_ID":"2021-132AL","EPOCH":"2026-07-10T08:07:03.936864","CLASSIFICATION_TYPE":"U","MEAN_MOTION":13.18686915,"ECCENTRICITY":0.00016011,"INCLINATION":87.9192,"RA_OF_ASC_NODE":330.8503,"ARG_OF_PERICENTER":104.7714,"MEAN_ANOMALY":255.3596,"EPHEMERIS_TYPE":0,"NORAD_CAT_ID":50503,"ELEMENT_SET_NO":999,"REV_AT_EPOCH":22462,"BSTAR":0.0002229327,"MEAN_MOTION_DOT":0.00000101,"MEAN_MOTION_DDOT":0},{"OBJECT_NAME":"ONEWEB-0450","OBJECT_ID":"2021-132AM","EPOCH":"2026-07-09T15:34:11.872128","CLASSIFICATION_TYPE":"U","MEAN_MOTION":13.18686595,"ECCENTRICITY":0.00019099,"INCLINATION":87.918,"RA_OF_ASC_NODE":330.9902,"ARG_OF_PERICENTER":103.2252,"MEAN_ANOMALY":256.9093,"EPHEMERIS_TYPE":0,"NORAD_CAT_ID":50504,"ELEMENT_SET_NO":999,"REV_AT_EPOCH":22456,"BSTAR":-0.000072286392,"MEAN_MOTION_DOT":-1.6e-7,"MEAN_MOTION_DDOT":0},{"OBJECT_NAME":"ONEWEB-0410","OBJECT_ID":"2022-012A","EPOCH":"2026-07-10T10:53:23.433216","CLASSIFICATION_TYPE":"U","MEAN_MOTION":13.17649809,"ECCENTRICITY":0.00020469,"INCLINATION":87.915,"RA_OF_ASC_NODE":1.2302,"ARG_OF_PERICENTER":52.5028,"MEAN_ANOMALY":307.6289,"EPHEMERIS_TYPE":0,"NORAD_CAT_ID":51622,"ELEMENT_SET_NO":999,"REV_AT_EPOCH":21676,"BSTAR":0.00012073651,"MEAN_MOTION_DOT":6e-7,"MEAN_MOTION_DDOT":0},{"OBJECT_NAME":"ONEWEB-0411","OBJECT_ID":"2022-012B","EPOCH":"2026-07-10T23:45:02.096640","CLASSIFICATION_TYPE":"U","MEAN_MOTION":13.10377902,"ECCENTRICITY":0.0002226,"INCLINATION":87.8829,"RA_OF_ASC_NODE":31.5245,"ARG_OF_PERICENTER":97.6043,"MEAN_ANOMALY":262.5338,"EPHEMERIS_TYPE":0,"NORAD_CAT_ID":51623,"ELEMENT_SET_NO":999,"REV_AT_EPOCH":21240,"BSTAR":0.00053629,"MEAN_MOTION_DOT":0.000002,"MEAN_MOTION_DDOT":0},{"OBJECT_NAME":"ONEWEB-0415","OBJECT_ID":"2022-012C","EPOCH":"2026-07-10T23:40:08.054976","CLASSIFICATION_TYPE":"U","MEAN_MOTION":13.10378407,"ECCENTRICITY":0.000214,"INCLINATION":87.8822,"RA_OF_ASC_NODE":31.5234,"ARG_OF_PERICENTER":88.0693,"MEAN_ANOMALY":272.0679,"EPHEMERIS_TYPE":0,"NORAD_CAT_ID":51624,"ELEMENT_SET_NO":999,"REV_AT_EPOCH":21240,"BSTAR":0.000078378,"MEAN_MOTION_DOT":4e-7,"MEAN_MOTION_DDOT":0},{"OBJECT_NAME":"ONEWEB-0416","OBJECT_ID":"2022-012D","EPOCH":"2026-07-10T23:57:15.692256","CLASSIFICATION_TYPE":"U","MEAN_MOTION":13.10376562,"ECCENTRICITY":0.0002186,"INCLINATION":87.8815,"RA_OF_ASC_NODE":31.5373,"ARG_OF_PERICENTER":85.9363,"MEAN_ANOMALY":274.2014,"EPHEMERIS_TYPE":0,"NORAD_CAT_ID":51625,"ELEMENT_SET_NO":999,"REV_AT_EPOCH":21244,"BSTAR":0.0014696,"MEAN_MOTION_DOT":0.00000526,"MEAN_MOTION_DDOT":0},{"OBJECT_NAME":"ONEWEB-0422","OBJECT_ID":"2022-012E","EPOCH":"2026-07-10T11:07:57.991296","CLASSIFICATION_TYPE":"U","MEAN_MOTION":13.17650675,"ECCENTRICITY":0.00017219,"INCLINATION":87.9147,"RA_OF_ASC_NODE":1.2289,"ARG_OF_PERICENTER":112.3828,"MEAN_ANOMALY":247.7486,"EPHEMERIS_TYPE":0,"NORAD_CAT_ID":51626,"ELEMENT_SET_NO":999,"REV_AT_EPOCH":21687,"BSTAR":0.00008273142,"MEAN_MOTION_DOT":4.5e-7,"MEAN_MOTION_DDOT":0},{"OBJECT_NAME":"ONEWEB-0423","OBJECT_ID":"2022-012F","EPOCH":"2026-07-10T10:58:14.746368","CLASSIFICATION_TYPE":"U","MEAN_MOTION":13.17647832,"ECCENTRICITY":0.00017948,"INCLINATION":87.9138,"RA_OF_ASC_NODE":1.2344,"ARG_OF_PERICENTER":88.6666,"MEAN_ANOMALY":271.4671,"EPHEMERIS_TYPE":0,"NORAD_CAT_ID":51627,"ELEMENT_SET_NO":999,"REV_AT_EPOCH":21676,"BSTAR":0.000029984419,"MEAN_MOTION_DOT":2.5e-7,"MEAN_MOTION_DDOT":0},{"OBJECT_NAME":"ONEWEB-0425","OBJECT_ID":"2022-012G","EPOCH":"2026-07-11T00:11:56.013216","CLASSIFICATION_TYPE":"U","MEAN_MOTION":13.103741,"ECCENTRICITY":0.0001879,"INCLINATION":87.8816,"RA_OF_ASC_NODE":31.5199,"ARG_OF_PERICENTER":73.6659,"MEAN_ANOMALY":286.4675,"EPHEMERIS_TYPE":0,"NORAD_CAT_ID":51628,"ELEMENT_SET_NO":999,"REV_AT_EPOCH":21244,"BSTAR":0.0020007,"MEAN_MOTION_DOT":0.00000711,"MEAN_MOTION_DDOT":0},{"OBJECT_NAME":"ONEWEB-0428","OBJECT_ID":"2022-012H","EPOCH":"2026-07-10T23:42:34.960032","CLASSIFICATION_TYPE":"U","MEAN_MOTION":13.10378257,"ECCENTRICITY":0.0001753,"INCLINATION":87.8816,"RA_OF_ASC_NODE":31.53,"ARG_OF_PERICENTER":84.3458,"MEAN_ANOMALY":275.787,"EPHEMERIS_TYPE":0,"NORAD_CAT_ID":51629,"ELEMENT_SET_NO":999,"REV_AT_EPOCH":21240,"BSTAR":0.0002261,"MEAN_MOTION_DOT":9.2e-7,"MEAN_MOTION_DDOT":0},{"OBJECT_NAME":"ONEWEB-0431","OBJECT_ID":"2022-012J","EPOCH":"2026-07-10T22:58:21.387936","CLASSIFICATION_TYPE":"U","MEAN_MOTION":13.10369916,"ECCENTRICITY":0.0002276,"INCLINATION":87.8815,"RA_OF_ASC_NODE":31.5297,"ARG_OF_PERICENTER":98.5047,"MEAN_ANOMALY":261.6339,"EPHEMERIS_TYPE":0,"NORAD_CAT_ID":51630,"ELEMENT_SET_NO":999,"REV_AT_EPOCH":21245,"BSTAR":-0.0011001,"MEAN_MOTION_DOT":-0.00000371,"MEAN_MOTION_DDOT":0},{"OBJECT_NAME":"ONEWEB-0434","OBJECT_ID":"2022-012K","EPOCH":"2026-07-10T00:27:36.151488","CLASSIFICATION_TYPE":"U","MEAN_MOTION":13.10370704,"ECCENTRICITY":0.00017187,"INCLINATION":87.8818,"RA_OF_ASC_NODE":31.7428,"ARG_OF_PERICENTER":65.8938,"MEAN_ANOMALY":294.2369,"EPHEMERIS_TYPE":0,"NORAD_CAT_ID":51631,"ELEMENT_SET_NO":999,"REV_AT_EPOCH":21231,"BSTAR":0.0020018547,"MEAN_MOTION_DOT":0.00000711,"MEAN_MOTION_DDOT":0}]}
